CCSDS_OMM_VERS = 2.0
CREATION_DATE  = 
ORIGINATOR     = 

OBJECT_NAME    = STARLINK-36648
OBJECT_ID      = 2026-033E
CENTER_NAME    = EARTH
REF_FRAME      = TEME
TIME_SYSTEM    = UTC
MEAN_ELEMENT_THEORY = SGP/SGP4

EPOCH          = 2026-03-03T22:42:30.359808
MEAN_MOTION    = 15.82160134
ECCENTRICITY   = .00024466
INCLINATION    = 42.9970
RA_OF_ASC_NODE = 306.6817
ARG_OF_PERICENTER = 268.2203
MEAN_ANOMALY   = 91.8388

EPHEMERIS_TYPE = 0
CLASSIFICATION_TYPE = U
NORAD_CAT_ID   = 67825
ELEMENT_SET_NO = 999
REV_AT_EPOCH   = 371
BSTAR          = .1447856E-2
MEAN_MOTION_DOT = .317941E-2
MEAN_MOTION_DDOT = 0

CCSDS_OMM_VERS = 2.0
CREATION_DATE  = 
ORIGINATOR     = 

OBJECT_NAME    = STARLINK-35865
OBJECT_ID      = 2026-033F
CENTER_NAME    = EARTH
REF_FRAME      = TEME
TIME_SYSTEM    = UTC
MEAN_ELEMENT_THEORY = SGP/SGP4

EPOCH          = 2026-03-03T16:37:47.393760
MEAN_MOTION    = 15.82104158
ECCENTRICITY   = .00011799
INCLINATION    = 42.9968
RA_OF_ASC_NODE = 308.2232
ARG_OF_PERICENTER = 274.8991
MEAN_ANOMALY   = 85.1746

EPHEMERIS_TYPE = 0
CLASSIFICATION_TYPE = U
NORAD_CAT_ID   = 67826
ELEMENT_SET_NO = 999
REV_AT_EPOCH   = 367
BSTAR          = .2086423E-2
MEAN_MOTION_DOT = .465172E-2
MEAN_MOTION_DDOT = 0

CCSDS_OMM_VERS = 2.0
CREATION_DATE  = 
ORIGINATOR     = 

OBJECT_NAME    = STARLINK-36289
OBJECT_ID      = 2026-033G
CENTER_NAME    = EARTH
REF_FRAME      = TEME
TIME_SYSTEM    = UTC
MEAN_ELEMENT_THEORY = SGP/SGP4

EPOCH          = 2026-03-03T22:40:20.711424
MEAN_MOTION    = 15.82201491
ECCENTRICITY   = .00027483
INCLINATION    = 42.9971
RA_OF_ASC_NODE = 306.6692
ARG_OF_PERICENTER = 261.2537
MEAN_ANOMALY   = 98.8024

EPHEMERIS_TYPE = 0
CLASSIFICATION_TYPE = U
NORAD_CAT_ID   = 67827
ELEMENT_SET_NO = 999
REV_AT_EPOCH   = 371
BSTAR          = .204296E-2
MEAN_MOTION_DOT = .45709E-2
MEAN_MOTION_DDOT = 0

CCSDS_OMM_VERS = 2.0
CREATION_DATE  = 
ORIGINATOR     = 

OBJECT_NAME    = STARLINK-36670
OBJECT_ID      = 2026-033H
CENTER_NAME    = EARTH
REF_FRAME      = TEME
TIME_SYSTEM    = UTC
MEAN_ELEMENT_THEORY = SGP/SGP4

EPOCH          = 2026-03-03T22:39:16.311456
MEAN_MOTION    = 15.82144810
ECCENTRICITY   = .00024175
INCLINATION    = 42.9971
RA_OF_ASC_NODE = 306.6638
ARG_OF_PERICENTER = 267.7680
MEAN_ANOMALY   = 92.2915

EPHEMERIS_TYPE = 0
CLASSIFICATION_TYPE = U
NORAD_CAT_ID   = 67828
ELEMENT_SET_NO = 999
REV_AT_EPOCH   = 371
BSTAR          = .14732312E-2
MEAN_MOTION_DOT = .3235E-2
MEAN_MOTION_DDOT = 0

CCSDS_OMM_VERS = 2.0
CREATION_DATE  = 
ORIGINATOR     = 

OBJECT_NAME    = STARLINK-36144
OBJECT_ID      = 2026-033J
CENTER_NAME    = EARTH
REF_FRAME      = TEME
TIME_SYSTEM    = UTC
MEAN_ELEMENT_THEORY = SGP/SGP4

EPOCH          = 2026-03-03T22:38:11.367168
MEAN_MOTION    = 15.82161074
ECCENTRICITY   = .00025217
INCLINATION    = 42.9968
RA_OF_ASC_NODE = 306.6568
ARG_OF_PERICENTER = 243.3347
MEAN_ANOMALY   = 116.7267

EPHEMERIS_TYPE = 0
CLASSIFICATION_TYPE = U
NORAD_CAT_ID   = 67829
ELEMENT_SET_NO = 999
REV_AT_EPOCH   = 371
BSTAR          = .14610213E-2
MEAN_MOTION_DOT = .320966E-2
MEAN_MOTION_DDOT = 0

CCSDS_OMM_VERS = 2.0
CREATION_DATE  = 
ORIGINATOR     = 

OBJECT_NAME    = STARLINK-36611
OBJECT_ID      = 2026-033K
CENTER_NAME    = EARTH
REF_FRAME      = TEME
TIME_SYSTEM    = UTC
MEAN_ELEMENT_THEORY = SGP/SGP4

EPOCH          = 2026-03-03T18:04:22.692288
MEAN_MOTION    = 15.82176248
ECCENTRICITY   = .00022955
INCLINATION    = 42.9974
RA_OF_ASC_NODE = 307.8111
ARG_OF_PERICENTER = 247.3913
MEAN_ANOMALY   = 112.6716

EPHEMERIS_TYPE = 0
CLASSIFICATION_TYPE = U
NORAD_CAT_ID   = 67830
ELEMENT_SET_NO = 999
REV_AT_EPOCH   = 368
BSTAR          = .17355726E-2
MEAN_MOTION_DOT = .384491E-2
MEAN_MOTION_DDOT = 0

CCSDS_OMM_VERS = 2.0
CREATION_DATE  = 
ORIGINATOR     = 

OBJECT_NAME    = STARLINK-36661
OBJECT_ID      = 2026-033L
CENTER_NAME    = EARTH
REF_FRAME      = TEME
TIME_SYSTEM    = UTC
MEAN_ELEMENT_THEORY = SGP/SGP4

EPOCH          = 2026-03-03T21:05:07.513152
MEAN_MOTION    = 15.82120368
ECCENTRICITY   = .00022206
INCLINATION    = 42.9972
RA_OF_ASC_NODE = 307.0316
ARG_OF_PERICENTER = 267.5048
MEAN_ANOMALY   = 92.5569

EPHEMERIS_TYPE = 0
CLASSIFICATION_TYPE = U
NORAD_CAT_ID   = 67831
ELEMENT_SET_NO = 999
REV_AT_EPOCH   = 370
BSTAR          = .11012045E-2
MEAN_MOTION_DOT = .239027E-2
MEAN_MOTION_DDOT = 0

CCSDS_OMM_VERS = 2.0
CREATION_DATE  = 
ORIGINATOR     = 

OBJECT_NAME    = STARLINK-36662
OBJECT_ID      = 2026-033M
CENTER_NAME    = EARTH
REF_FRAME      = TEME
TIME_SYSTEM    = UTC
MEAN_ELEMENT_THEORY = SGP/SGP4

EPOCH          = 2026-03-03T18:00:02.000160
MEAN_MOTION    = 15.84398287
ECCENTRICITY   = .00020373
INCLINATION    = 42.9961
RA_OF_ASC_NODE = 307.0550
ARG_OF_PERICENTER = 266.8713
MEAN_ANOMALY   = 23.2559

EPHEMERIS_TYPE = 0
CLASSIFICATION_TYPE = U
NORAD_CAT_ID   = 67832
ELEMENT_SET_NO = 999
REV_AT_EPOCH   = 370
BSTAR          = .83507491E-4
MEAN_MOTION_DOT = .19173E-3
MEAN_MOTION_DDOT = 0

CCSDS_OMM_VERS = 2.0
CREATION_DATE  = 
ORIGINATOR     = 

OBJECT_NAME    = STARLINK-36659
OBJECT_ID      = 2026-033N
CENTER_NAME    = EARTH
REF_FRAME      = TEME
TIME_SYSTEM    = UTC
MEAN_ELEMENT_THEORY = SGP/SGP4

EPOCH          = 2026-03-03T22:34:57.196992
MEAN_MOTION    = 15.82192077
ECCENTRICITY   = .00024213
INCLINATION    = 42.9968
RA_OF_ASC_NODE = 306.6389
ARG_OF_PERICENTER = 281.5685
MEAN_ANOMALY   = 78.4915

EPHEMERIS_TYPE = 0
CLASSIFICATION_TYPE = U
NORAD_CAT_ID   = 67833
ELEMENT_SET_NO = 999
REV_AT_EPOCH   = 371
BSTAR          = .21794515E-2
MEAN_MOTION_DOT = .48929E-2
MEAN_MOTION_DDOT = 0

CCSDS_OMM_VERS = 2.0
CREATION_DATE  = 
ORIGINATOR     = 

OBJECT_NAME    = STARLINK-36655
OBJECT_ID      = 2026-033P
CENTER_NAME    = EARTH
REF_FRAME      = TEME
TIME_SYSTEM    = UTC
MEAN_ELEMENT_THEORY = SGP/SGP4

EPOCH          = 2026-03-03T22:33:52.377120
MEAN_MOTION    = 15.82199431
ECCENTRICITY   = .00022944
INCLINATION    = 42.9969
RA_OF_ASC_NODE = 306.6331
ARG_OF_PERICENTER = 247.5636
MEAN_ANOMALY   = 112.4993

EPHEMERIS_TYPE = 0
CLASSIFICATION_TYPE = U
NORAD_CAT_ID   = 67834
ELEMENT_SET_NO = 999
REV_AT_EPOCH   = 371
BSTAR          = .19224834E-2
MEAN_MOTION_DOT = .428627E-2
MEAN_MOTION_DDOT = 0

CCSDS_OMM_VERS = 2.0
CREATION_DATE  = 
ORIGINATOR     = 

OBJECT_NAME    = STARLINK-36657
OBJECT_ID      = 2026-033Q
CENTER_NAME    = EARTH
REF_FRAME      = TEME
TIME_SYSTEM    = UTC
MEAN_ELEMENT_THEORY = SGP/SGP4

EPOCH          = 2026-03-03T22:32:47.750784
MEAN_MOTION    = 15.82192315
ECCENTRICITY   = .00025883
INCLINATION    = 42.9970
RA_OF_ASC_NODE = 306.6269
ARG_OF_PERICENTER = 268.9911
MEAN_ANOMALY   = 91.0665

EPHEMERIS_TYPE = 0
CLASSIFICATION_TYPE = U
NORAD_CAT_ID   = 67835
ELEMENT_SET_NO = 999
REV_AT_EPOCH   = 371
BSTAR          = .18991965E-2
MEAN_MOTION_DOT = .423012E-2
MEAN_MOTION_DDOT = 0

CCSDS_OMM_VERS = 2.0
CREATION_DATE  = 
ORIGINATOR     = 

OBJECT_NAME    = STARLINK-36650
OBJECT_ID      = 2026-033R
CENTER_NAME    = EARTH
REF_FRAME      = TEME
TIME_SYSTEM    = UTC
MEAN_ELEMENT_THEORY = SGP/SGP4

EPOCH          = 2026-03-03T22:31:43.347360
MEAN_MOTION    = 15.82147652
ECCENTRICITY   = .00026613
INCLINATION    = 42.9969
RA_OF_ASC_NODE = 306.6203
ARG_OF_PERICENTER = 292.7293
MEAN_ANOMALY   = 67.3298

EPHEMERIS_TYPE = 0
CLASSIFICATION_TYPE = U
NORAD_CAT_ID   = 67836
ELEMENT_SET_NO = 999
REV_AT_EPOCH   = 371
BSTAR          = .17043417E-2
MEAN_MOTION_DOT = .376722E-2
MEAN_MOTION_DDOT = 0

