STARLINK-36648          
1 67825U 26033E   26062.94618472  .00317941  00000+0  14479-2 0  9990
2 67825  42.9970 306.6817 0002446 268.2203  91.8388 15.82160134  3710
STARLINK-35865          
1 67826U 26033F   26062.69290965  .00465172  00000+0  20864-2 0  9991
2 67826  42.9968 308.2232 0001179 274.8991  85.1746 15.82104158  3679
STARLINK-36289          
1 67827U 26033G   26062.94468416  .00457090  00000+0  20430-2 0  9997
2 67827  42.9971 306.6692 0002748 261.2537  98.8024 15.82201491  3718
STARLINK-36670          
1 67828U 26033H   26062.94393879  .00323500  00000+0  14732-2 0  9994
2 67828  42.9971 306.6638 0002417 267.7680  92.2915 15.82144810  3710
STARLINK-36144          
1 67829U 26033J   26062.94318712  .00320966  00000+0  14610-2 0  9996
2 67829  42.9968 306.6568 0002521 243.3347 116.7267 15.82161074  3718
STARLINK-36611          
1 67830U 26033K   26062.75304042  .00384491  00000+0  17356-2 0  9991
2 67830  42.9974 307.8111 0002295 247.3913 112.6716 15.82176248  3684
STARLINK-36661          
1 67831U 26033L   26062.87855918  .00239027  00000+0  11012-2 0  9995
2 67831  42.9972 307.0316 0002220 267.5048  92.5569 15.82120368  3700
STARLINK-36662          
1 67832U 26033M   26062.75002315  .00019173  00000+0  83507-4 0  9996
2 67832  42.9961 307.0550 0002037 266.8713  23.2559 15.84398287  3705
STARLINK-36659          
1 67833U 26033N   26062.94093978  .00489290  00000+0  21795-2 0  9993
2 67833  42.9968 306.6389 0002421 281.5685  78.4915 15.82192077  3713
STARLINK-36655          
1 67834U 26033P   26062.94018955  .00428627  00000+0  19225-2 0  9998
2 67834  42.9969 306.6331 0002294 247.5636 112.4993 15.82199431  3714
STARLINK-36657          
1 67835U 26033Q   26062.93944156  .00423012  00000+0  18992-2 0  9992
2 67835  42.9970 306.6269 0002588 268.9911  91.0665 15.82192315  3718
STARLINK-36650          
1 67836U 26033R   26062.93869615  .00376722  00000+0  17043-2 0  9990
2 67836  42.9969 306.6203 0002661 292.7293  67.3298 15.82147652  3717
